{"type": "FeatureCollection", "features": [ {"type": "Feature", "properties": {"norad_id": 31552, "name": "FENGYUN 1C DEB", "group": "fengyun-1c-debris", "lat": -32.82941848921177, "lon": -71.08942670521556, "alt_km": 797.9345205321561, "timestamp": "2025-12-18T13:51:49.967063+00:00", "meta": {"OBJECT_NAME": "FENGYUN 1C DEB", "OBJECT_ID": "1999-025BYT", "EPOCH": "2025-12-17T06:58:54.985152", "MEAN_MOTION": 14.45772457, "ECCENTRICITY": 0.00853627, "INCLINATION": 98.6198, "RA_OF_ASC_NODE": 113.2198, "ARG_OF_PERICENTER": 6.8749, "MEAN_ANOMALY": 353.3591, "EPHEMERIS_TYPE": 0, "CLASSIFICATION_TYPE": "U", "NORAD_CAT_ID": 31552, "ELEMENT_SET_NO": 999, "REV_AT_EPOCH": 95942, "BSTAR": 0.0020741958, "MEAN_MOTION_DOT": 7.651e-05, "MEAN_MOTION_DDOT": 0}, "tle": {"line1": "1 31552U 99025BYT 25351.29091418  .00007651  00000+0  20742-2 0  9996", "line2": "2 31552  98.6198 113.2198 0085362   6.8749 353.3591 14.45772457959426"}}, "geometry": {"type": "Point", "coordinates": [-71.08942670521556, -32.82941848921177]}}, {"type": "Feature", "properties": {"norad_id": 31553, "name": "FENGYUN 1C DEB", "group": "fengyun-1c-debris", "lat": 23.32320796038298, "lon": -128.55055251802096, "alt_km": 783.4176597841006, "timestamp": "2025-12-18T13:51:49.967074+00:00", "meta": {"OBJECT_NAME": "FENGYUN 1C DEB", "OBJECT_ID": "1999-025BYU", "EPOCH": "2025-12-16T02:30:54.789120", "MEAN_MOTION": 14.30186914, "ECCENTRICITY": 0.0029858, "INCLINATION": 99.0042, "RA_OF_ASC_NODE": 44.9721, "ARG_OF_PERICENTER": 92.6824, "MEAN_ANOMALY": 298.4165, "EPHEMERIS_TYPE": 0, "CLASSIFICATION_TYPE": "U", "NORAD_CAT_ID": 31553, "ELEMENT_SET_NO": 999, "REV_AT_EPOCH": 95958, "BSTAR": 0.0012186764, "MEAN_MOTION_DOT": 3.125e-05, "MEAN_MOTION_DDOT": 0}, "tle": {"line1": "1 31553U 99025BYU 25350.10480080  .00003125  00000+0  12187-2 0  9999", "line2": "2 31553  99.0042  44.9721 0029858  92.6824 298.4165 14.30186914959581"}}, "geometry": {"type": "Point", "coordinates": [-128.55055251802096, 23.32320796038298]}}, {"type": "Feature", "properties": {"norad_id": 31555, "name": "FENGYUN 1C DEB", "group": "fengyun-1c-debris", "lat": -33.48201515936172, "lon": 121.0435068683027, "alt_km": 659.5879451985775, "timestamp": "2025-12-18T13:51:49.967085+00:00", "meta": {"OBJECT_NAME": "FENGYUN 1C DEB", "OBJECT_ID": "1999-025BYW", "EPOCH": "2025-12-15T03:24:33.183936", "MEAN_MOTION": 14.44273721, "ECCENTRICITY": 0.0154509, "INCLINATION": 99.1032, "RA_OF_ASC_NODE": 303.4548, "ARG_OF_PERICENTER": 189.1993, "MEAN_ANOMALY": 170.6358, "EPHEMERIS_TYPE": 0, "CLASSIFICATION_TYPE": "U", "NORAD_CAT_ID": 31555, "ELEMENT_SET_NO": 999, "REV_AT_EPOCH": 96598, "BSTAR": 0.00082122942, "MEAN_MOTION_DOT": 3.21e-05, "MEAN_MOTION_DDOT": 0}, "tle": {"line1": "1 31555U 99025BYW 25349.14205074  .00003210  00000+0  82123-3 0  9994", "line2": "2 31555  99.1032 303.4548 0154509 189.1993 170.6358 14.44273721965988"}}, "geometry": {"type": "Point", "coordinates": [121.0435068683027, -33.48201515936172]}}, {"type": "Feature", "properties": {"norad_id": 31558, "name": "FENGYUN 1C DEB", "group": "fengyun-1c-debris", "lat": 19.801942538158883, "lon": -115.083137754118, "alt_km": 868.1396141886689, "timestamp": "2025-12-18T13:51:49.967098+00:00", "meta": {"OBJECT_NAME": "FENGYUN 1C DEB", "OBJECT_ID": "1999-025BYZ", "EPOCH": "2025-12-17T22:49:13.221408", "MEAN_MOTION": 14.38711801, "ECCENTRICITY": 0.02107258, "INCLINATION": 98.7911, "RA_OF_ASC_NODE": 247.4686, "ARG_OF_PERICENTER": 246.7382, "MEAN_ANOMALY": 127.0573, "EPHEMERIS_TYPE": 0, "CLASSIFICATION_TYPE": "U", "NORAD_CAT_ID": 31558, "ELEMENT_SET_NO": 999, "REV_AT_EPOCH": 97510, "BSTAR": 0.00020986622, "MEAN_MOTION_DOT": 7.76e-06, "MEAN_MOTION_DDOT": 0}, "tle": {"line1": "1 31558U 99025BYZ 25351.95084747  .00000776  00000+0  20987-3 0  9995", "line2": "2 31558  98.7911 247.4686 0210725 246.7382 127.0573 14.38711801975106"}}, "geometry": {"type": "Point", "coordinates": [-115.083137754118, 19.801942538158883]}}, {"type": "Feature", "properties": {"norad_id": 31559, "name": "FENGYUN 1C DEB", "group": "fengyun-1c-debris", "lat": 44.540608908894, "lon": -61.710908865400135, "alt_km": 702.3094072355516, "timestamp": "2025-12-18T13:51:49.967108+00:00", "meta": {"OBJECT_NAME": "FENGYUN 1C DEB", "OBJECT_ID": "1999-025BZA", "EPOCH": "2025-12-17T08:49:22.031904", "MEAN_MOTION": 14.63637499, "ECCENTRICITY": 0.00545262, "INCLINATION": 98.8672, "RA_OF_ASC_NODE": 305.8256, "ARG_OF_PERICENTER": 179.1954, "MEAN_ANOMALY": 334.4386, "EPHEMERIS_TYPE": 0, "CLASSIFICATION_TYPE": "U", "NORAD_CAT_ID": 31559, "ELEMENT_SET_NO": 999, "REV_AT_EPOCH": 97624, "BSTAR": 0.0010244842, "MEAN_MOTION_DOT": 5.388e-05, "MEAN_MOTION_DDOT": 0}, "tle": {"line1": "1 31559U 99025BZA 25351.36761611  .00005388  00000+0  10245-2 0  9992", "line2": "2 31559  98.8672 305.8256 0054526 179.1954 334.4386 14.63637499976243"}}, "geometry": {"type": "Point", "coordinates": [-61.710908865400135, 44.540608908894]}}, {"type": "Feature", "properties": {"norad_id": 31560, "name": "FENGYUN 1C DEB", "group": "fengyun-1c-debris", "lat": -4.250161370747492, "lon": -152.11110794236978, "alt_km": 849.2874116932808, "timestamp": "2025-12-18T13:51:49.967120+00:00", "meta": {"OBJECT_NAME": "FENGYUN 1C DEB", "OBJECT_ID": "1999-025BZB", "EPOCH": "2025-12-17T21:46:52.120416", "MEAN_MOTION": 14.21223791, "ECCENTRICITY": 0.01197855, "INCLINATION": 98.5884, "RA_OF_ASC_NODE": 27.8806, "ARG_OF_PERICENTER": 293.3576, "MEAN_ANOMALY": 65.5037, "EPHEMERIS_TYPE": 0, "CLASSIFICATION_TYPE": "U", "NORAD_CAT_ID": 31560, "ELEMENT_SET_NO": 999, "REV_AT_EPOCH": 96692, "BSTAR": 5.6597435e-05, "MEAN_MOTION_DOT": 8.9e-07, "MEAN_MOTION_DDOT": 0}, "tle": {"line1": "1 31560U 99025BZB 25351.90754769  .00000089  00000+0  56597-4 0  9995", "line2": "2 31560  98.5884  27.8806 0119785 293.3576  65.5037 14.21223791966926"}}, "geometry": {"type": "Point", "coordinates": [-152.11110794236978, -4.250161370747492]}}, {"type": "Feature", "properties": {"norad_id": 31561, "name": "FENGYUN 1C DEB", "group": "fengyun-1c-debris", "lat": 14.290630514412532, "lon": 170.61109319279342, "alt_km": 843.9765433610537, "timestamp": "2025-12-18T13:51:49.967132+00:00", "meta": {"OBJECT_NAME": "FENGYUN 1C DEB", "OBJECT_ID": "1999-025BZC", "EPOCH": "2025-12-17T23:30:40.927104", "MEAN_MOTION": 14.02776268, "ECCENTRICITY": 0.00565593, "INCLINATION": 98.7171, "RA_OF_ASC_NODE": 347.7989, "ARG_OF_PERICENTER": 167.9443, "MEAN_ANOMALY": 219.1623, "EPHEMERIS_TYPE": 0, "CLASSIFICATION_TYPE": "U", "NORAD_CAT_ID": 31561, "ELEMENT_SET_NO": 999, "REV_AT_EPOCH": 95252, "BSTAR": 0.00028368237, "MEAN_MOTION_DOT": 4.03e-06, "MEAN_MOTION_DDOT": 0}, "tle": {"line1": "1 31561U 99025BZC 25351.97964036  .00000403  00000+0  28368-3 0  9997", "line2": "2 31561  98.7171 347.7989 0056559 167.9443 219.1623 14.02776268952522"}}, "geometry": {"type": "Point", "coordinates": [170.61109319279342, 14.290630514412532]}}, {"type": "Feature", "properties": {"norad_id": 31562, "name": "FENGYUN 1C DEB", "group": "fengyun-1c-debris", "lat": 65.53172402473338, "lon": -14.38390584705151, "alt_km": 781.4595307198279, "timestamp": "2025-12-18T13:51:49.967144+00:00", "meta": {"OBJECT_NAME": "FENGYUN 1C DEB", "OBJECT_ID": "1999-025BZD", "EPOCH": "2025-12-17T09:01:49.921536", "MEAN_MOTION": 14.42092148, "ECCENTRICITY": 0.00570755, "INCLINATION": 99.2571, "RA_OF_ASC_NODE": 143.312, "ARG_OF_PERICENTER": 269.5654, "MEAN_ANOMALY": 89.8993, "EPHEMERIS_TYPE": 0, "CLASSIFICATION_TYPE": "U", "NORAD_CAT_ID": 31562, "ELEMENT_SET_NO": 999, "REV_AT_EPOCH": 97057, "BSTAR": 0.00075071133, "MEAN_MOTION_DOT": 2.464e-05, "MEAN_MOTION_DDOT": 0}, "tle": {"line1": "1 31562U 99025BZD 25351.37627224  .00002464  00000+0  75071-3 0  9999", "line2": "2 31562  99.2571 143.3120 0057075 269.5654  89.8993 14.42092148970576"}}, "geometry": {"type": "Point", "coordinates": [-14.38390584705151, 65.53172402473338]}}, {"type": "Feature", "properties": {"norad_id": 31563, "name": "FENGYUN 1C DEB", "group": "fengyun-1c-debris", "lat": -80.6226392324456, "lon": -140.77887735971206, "alt_km": 751.3651550152572, "timestamp": "2025-12-18T13:51:49.967155+00:00", "meta": {"OBJECT_NAME": "FENGYUN 1C DEB", "OBJECT_ID": "1999-025BZE", "EPOCH": "2025-12-17T08:45:54.099072", "MEAN_MOTION": 14.65329236, "ECCENTRICITY": 0.01138678, "INCLINATION": 98.9513, "RA_OF_ASC_NODE": 145.2647, "ARG_OF_PERICENTER": 64.7565, "MEAN_ANOMALY": 296.5387, "EPHEMERIS_TYPE": 0, "CLASSIFICATION_TYPE": "U", "NORAD_CAT_ID": 31563, "ELEMENT_SET_NO": 999, "REV_AT_EPOCH": 98612, "BSTAR": 0.00039413254, "MEAN_MOTION_DOT": 2.278e-05, "MEAN_MOTION_DDOT": 0}, "tle": {"line1": "1 31563U 99025BZE 25351.36520948  .00002278  00000+0  39413-3 0  9997", "line2": "2 31563  98.9513 145.2647 0113867  64.7565 296.5387 14.65329236986120"}}, "geometry": {"type": "Point", "coordinates": [-140.77887735971206, -80.6226392324456]}}, {"type": "Feature", "properties": {"norad_id": 31565, "name": "FENGYUN 1C DEB", "group": "fengyun-1c-debris", "lat": 24.429169455492993, "lon": -138.79275204902268, "alt_km": 722.2324846452984, "timestamp": "2025-12-18T13:51:49.967165+00:00", "meta": {"OBJECT_NAME": "FENGYUN 1C DEB", "OBJECT_ID": "1999-025BZG", "EPOCH": "2025-12-17T09:22:56.320896", "MEAN_MOTION": 14.39016507, "ECCENTRICITY": 0.0057047, "INCLINATION": 100.7176, "RA_OF_ASC_NODE": 224.6629, "ARG_OF_PERICENTER": 10.036, "MEAN_ANOMALY": 350.1945, "EPHEMERIS_TYPE": 0, "CLASSIFICATION_TYPE": "U", "NORAD_CAT_ID": 31565, "ELEMENT_SET_NO": 999, "REV_AT_EPOCH": 64420, "BSTAR": 0.0024410426, "MEAN_MOTION_DOT": 7.627e-05, "MEAN_MOTION_DDOT": 0}, "tle": {"line1": "1 31565U 99025BZG 25351.39092964  .00007627  00000+0  24410-2 0  9997", "line2": "2 31565 100.7176 224.6629 0057047  10.0360 350.1945 14.39016507644207"}}, "geometry": {"type": "Point", "coordinates": [-138.79275204902268, 24.429169455492993]}}]}